[
    {
        "Altitude(m)": 610399.528335726,
        "Argument of Periapsis(deg)": 0.0,
        "Eccentricity": 0.0,
        "Inclination(deg)": 60.0,
        "Latitude(deg)": 52.111333558254394,
        "Longitude(deg)": -157.4155783793757,
        "Mean Anomaly(deg)": 65.45449999999998,
        "RAAN(deg)": 255.0,
        "Satellite Name": "Test1 1126",
        "Satellite Number": 1126,
        "Semi-Major Axis(m)": 6980739.136638005,
        "Time(s)": 0
    },
    {
        "Altitude(m)": 610481.6789769895,
        "Argument of Periapsis(deg)": 0.00010418945913296404,
        "Eccentricity": 0.0,
        "Inclination(deg)": 60.0,
        "Latitude(deg)": 52.47093457656669,
        "Longitude(deg)": -156.6334406831708,
        "Mean Anomaly(deg)": 66.07460614546183,
        "RAAN(deg)": 254.99957995086027,
        "Satellite Name": "Test1 1126",
        "Satellite Number": 1126,
        "Semi-Major Axis(m)": 6980739.136638005,
        "Time(s)": 10
    }
]